[{"OBJECT_NAME":"ICEYE-X31","OBJECT_ID":"2023-174AJ","EPOCH":"2026-03-09T23:06:20.433600","MEAN_MOTION":15.30950809,"ECCENTRICITY":0.00015021,"INCLINATION":97.3851,"RA_OF_ASC_NODE":144.9524,"ARG_OF_PERICENTER":332.6589,"MEAN_ANOMALY":27.4572,"EPHEMERIS_TYPE":0,"CLASSIFICATION_TYPE":"U","NORAD_CAT_ID":58288,"ELEMENT_SET_NO":999,"REV_AT_EPOCH":12955,"BSTAR":0.00066288467,"MEAN_MOTION_DOT":0.00019777,"MEAN_MOTION_DDOT":0},{"OBJECT_NAME":"STARLINK-31911","OBJECT_ID":"2024-150E","EPOCH":"2026-03-09T21:54:11.574144","MEAN_MOTION":15.30197119,"ECCENTRICITY":0.00014401,"INCLINATION":53.161,"RA_OF_ASC_NODE":306.1203,"ARG_OF_PERICENTER":114.2645,"MEAN_ANOMALY":245.8506,"EPHEMERIS_TYPE":0,"CLASSIFICATION_TYPE":"U","NORAD_CAT_ID":60587,"ELEMENT_SET_NO":999,"REV_AT_EPOCH":8799,"BSTAR":-4.6184632e-5,"MEAN_MOTION_DOT":-1.727e-5,"MEAN_MOTION_DDOT":0}]
